IRIDIUM 26              
1 24903U 97043A   25351.22417973  .00000356  00000+0  11269-3 0  9997
2 24903  86.3957  33.6780 0002172  99.0232 261.1212 14.37331102483030
IRIDIUM 22              
1 24907U 97043E   25351.16692970  .00000308  00000+0  99115-4 0  9990
2 24907  86.3960  37.3991 0002312  95.2386 264.9075 14.36124693483039
DUMMY MASS 1            
1 24925U 97048A   25351.24655964  .00000368  00000+0  37801-4 0  9996
2 24925  86.3343  50.6211 0005524 197.0509 163.0532 14.87186908532331
DUMMY MASS 2            
1 24926U 97048B   25351.23928796  .00000346  00000+0  35587-4 0  9997
2 24926  86.3343  52.2661 0005806 213.6035 146.4823 14.86937221532105
IRIDIUM 29              
1 24944U 97051A   25351.26268299  .00000355  00000+0  11388-3 0  9991
2 24944  86.3953  67.0446 0002272  91.7332 268.4126 14.36666617479559
IRIDIUM 33              
1 24946U 97051C   25351.23886509  .00000289  00000+0  94688-4 0  9991
2 24946  86.3868  66.3333 0007571 184.7993 175.3132 14.35040600478993
IRIDIUM 28              
1 24948U 97051E   25351.26007069  .00000352  00000+0  11083-3 0  9990
2 24948  86.3957  64.4567 0002068 109.9357 250.2063 14.37566514480146
IRIDIUM 36              
1 24967U 97056C   25351.33406570  .00000376  00000+0  11846-3 0  9997
2 24967  86.3962  96.0529 0002218 101.4211 258.7236 14.37788283478539
